{"type": "FeatureCollection", "features": [ {"type": "Feature", "properties": {"norad_id": 34833, "name": "IRIDIUM 33 DEB", "group": "iridium-33-debris", "lat": 13.344534406351725, "lon": -129.10572205673998, "alt_km": 712.0297898403878, "timestamp": "2025-12-10T23:33:13.203329+00:00", "meta": {"OBJECT_NAME": "IRIDIUM 33 DEB", "OBJECT_ID": "1997-051MH", "EPOCH": "2025-12-10T04:50:56.700096", "MEAN_MOTION": 14.52352974, "ECCENTRICITY": 0.0021797, "INCLINATION": 86.3927, "RA_OF_ASC_NODE": 52.0875, "ARG_OF_PERICENTER": 106.3594, "MEAN_ANOMALY": 307.6921, "EPHEMERIS_TYPE": 0, "CLASSIFICATION_TYPE": "U", "NORAD_CAT_ID": 34833, "ELEMENT_SET_NO": 999, "REV_AT_EPOCH": 87678, "BSTAR": 0.0011722, "MEAN_MOTION_DOT": 4.804e-05, "MEAN_MOTION_DDOT": 0}, "tle": {"line1": "1 34833U 97051MH  25344.20204514  .00004804  00000+0  11722-2 0  9999", "line2": "2 34833  86.3927  52.0875 0021797 106.3594 307.6921 14.52352974876785"}}, "geometry": {"type": "Point", "coordinates": [-129.10572205673998, 13.344534406351725]}}, {"type": "Feature", "properties": {"norad_id": 34870, "name": "IRIDIUM 33 DEB", "group": "iridium-33-debris", "lat": -13.59494000267238, "lon": -46.00493201555891, "alt_km": 655.7738852516932, "timestamp": "2025-12-10T23:33:13.203338+00:00", "meta": {"OBJECT_NAME": "IRIDIUM 33 DEB", "OBJECT_ID": "1997-051MQ", "EPOCH": "2025-12-10T09:39:54.584640", "MEAN_MOTION": 14.76351928, "ECCENTRICITY": 0.00158535, "INCLINATION": 86.3109, "RA_OF_ASC_NODE": 315.154, "ARG_OF_PERICENTER": 191.0741, "MEAN_ANOMALY": 321.7047, "EPHEMERIS_TYPE": 0, "CLASSIFICATION_TYPE": "U", "NORAD_CAT_ID": 34870, "ELEMENT_SET_NO": 999, "REV_AT_EPOCH": 88876, "BSTAR": 0.0022898178, "MEAN_MOTION_DOT": 0.00015968, "MEAN_MOTION_DDOT": 0}, "tle": {"line1": "1 34870U 97051MQ  25344.40271510  .00015968  00000+0  22898-2 0  9991", "line2": "2 34870  86.3109 315.1540 0015853 191.0741 321.7047 14.76351928888762"}}, "geometry": {"type": "Point", "coordinates": [-46.00493201555891, -13.59494000267238]}}, {"type": "Feature", "properties": {"norad_id": 34896, "name": "IRIDIUM 33 DEB", "group": "iridium-33-debris", "lat": -71.4676583910597, "lon": 158.51423007537727, "alt_km": 665.8063501719598, "timestamp": "2025-12-10T23:33:13.203347+00:00", "meta": {"OBJECT_NAME": "IRIDIUM 33 DEB", "OBJECT_ID": "1997-051MY", "EPOCH": "2025-12-10T06:18:53.078976", "MEAN_MOTION": 14.66236202, "ECCENTRICITY": 0.0024107, "INCLINATION": 86.3294, "RA_OF_ASC_NODE": 327.796, "ARG_OF_PERICENTER": 223.7133, "MEAN_ANOMALY": 198.9285, "EPHEMERIS_TYPE": 0, "CLASSIFICATION_TYPE": "U", "NORAD_CAT_ID": 34896, "ELEMENT_SET_NO": 999, "REV_AT_EPOCH": 87583, "BSTAR": 0.0014714, "MEAN_MOTION_DOT": 8.162e-05, "MEAN_MOTION_DDOT": 0}, "tle": {"line1": "1 34896U 97051MY  25344.26311434  .00008162  00000+0  14714-2 0  9999", "line2": "2 34896  86.3294 327.7960 0024107 223.7133 198.9285 14.66236202875838"}}, "geometry": {"type": "Point", "coordinates": [158.51423007537727, -71.4676583910597]}}, {"type": "Feature", "properties": {"norad_id": 34926, "name": "IRIDIUM 33 DEB", "group": "iridium-33-debris", "lat": 54.00917435895806, "lon": 14.433030356518481, "alt_km": 729.4301919149893, "timestamp": "2025-12-10T23:33:13.203358+00:00", "meta": {"OBJECT_NAME": "IRIDIUM 33 DEB", "OBJECT_ID": "1997-051NF", "EPOCH": "2025-12-10T08:30:38.692800", "MEAN_MOTION": 14.54232236, "ECCENTRICITY": 0.00758375, "INCLINATION": 86.132, "RA_OF_ASC_NODE": 9.3785, "ARG_OF_PERICENTER": 300.9575, "MEAN_ANOMALY": 73.1796, "EPHEMERIS_TYPE": 0, "CLASSIFICATION_TYPE": "U", "NORAD_CAT_ID": 34926, "ELEMENT_SET_NO": 999, "REV_AT_EPOCH": 86422, "BSTAR": 0.0084014253, "MEAN_MOTION_DOT": 0.00037149, "MEAN_MOTION_DDOT": 0}, "tle": {"line1": "1 34926U 97051NF  25344.35461450  .00037149  00000+0  84014-2 0  9994", "line2": "2 34926  86.1320   9.3785 0075837 300.9575  73.1796 14.54232236864224"}}, "geometry": {"type": "Point", "coordinates": [14.433030356518481, 54.00917435895806]}}, {"type": "Feature", "properties": {"norad_id": 34985, "name": "IRIDIUM 33 DEB", "group": "iridium-33-debris", "lat": -76.21728674799297, "lon": -107.37004685234349, "alt_km": 746.7654202950835, "timestamp": "2025-12-10T23:33:13.203367+00:00", "meta": {"OBJECT_NAME": "IRIDIUM 33 DEB", "OBJECT_ID": "1997-051NR", "EPOCH": "2025-12-10T04:10:55.898976", "MEAN_MOTION": 14.41991528, "ECCENTRICITY": 0.00204833, "INCLINATION": 86.3695, "RA_OF_ASC_NODE": 57.9739, "ARG_OF_PERICENTER": 228.6146, "MEAN_ANOMALY": 160.5649, "EPHEMERIS_TYPE": 0, "CLASSIFICATION_TYPE": "U", "NORAD_CAT_ID": 34985, "ELEMENT_SET_NO": 999, "REV_AT_EPOCH": 87138, "BSTAR": 0.00097130288, "MEAN_MOTION_DOT": 3.211e-05, "MEAN_MOTION_DDOT": 0}, "tle": {"line1": "1 34985U 97051NR  25344.17425809  .00003211  00000+0  97130-3 0  9994", "line2": "2 34985  86.3695  57.9739 0020483 228.6146 160.5649 14.41991528871386"}}, "geometry": {"type": "Point", "coordinates": [-107.37004685234349, -76.21728674799297]}}, {"type": "Feature", "properties": {"norad_id": 35051, "name": "IRIDIUM 33 DEB", "group": "iridium-33-debris", "lat": 25.764125491094735, "lon": -172.14997346317926, "alt_km": 728.8363184865148, "timestamp": "2025-12-10T23:33:13.203376+00:00", "meta": {"OBJECT_NAME": "IRIDIUM 33 DEB", "OBJECT_ID": "1997-051NX", "EPOCH": "2025-12-10T01:16:41.683872", "MEAN_MOTION": 14.47578215, "ECCENTRICITY": 0.00106632, "INCLINATION": 86.3242, "RA_OF_ASC_NODE": 10.0324, "ARG_OF_PERICENTER": 98.47, "MEAN_ANOMALY": 261.7712, "EPHEMERIS_TYPE": 0, "CLASSIFICATION_TYPE": "U", "NORAD_CAT_ID": 35051, "ELEMENT_SET_NO": 999, "REV_AT_EPOCH": 86957, "BSTAR": 0.00086361177, "MEAN_MOTION_DOT": 3.199e-05, "MEAN_MOTION_DDOT": 0}, "tle": {"line1": "1 35051U 97051NX  25344.05326023  .00003199  00000+0  86361-3 0  9993", "line2": "2 35051  86.3242  10.0324 0010663  98.4700 261.7712 14.47578215869570"}}, "geometry": {"type": "Point", "coordinates": [-172.14997346317926, 25.764125491094735]}}, {"type": "Feature", "properties": {"norad_id": 35052, "name": "IRIDIUM 33 DEB", "group": "iridium-33-debris", "lat": 0.3837372959959591, "lon": 21.254916434401327, "alt_km": 766.3399980863787, "timestamp": "2025-12-10T23:33:13.203385+00:00", "meta": {"OBJECT_NAME": "IRIDIUM 33 DEB", "OBJECT_ID": "1997-051NY", "EPOCH": "2025-12-10T08:31:35.753952", "MEAN_MOTION": 14.38488102, "ECCENTRICITY": 0.00136984, "INCLINATION": 86.3312, "RA_OF_ASC_NODE": 21.4986, "ARG_OF_PERICENTER": 91.6978, "MEAN_ANOMALY": 268.579, "EPHEMERIS_TYPE": 0, "CLASSIFICATION_TYPE": "U", "NORAD_CAT_ID": 35052, "ELEMENT_SET_NO": 999, "REV_AT_EPOCH": 87241, "BSTAR": 0.00028271325, "MEAN_MOTION_DOT": 8.84e-06, "MEAN_MOTION_DDOT": 0}, "tle": {"line1": "1 35052U 97051NY  25344.35527493  .00000884  00000+0  28271-3 0  9995", "line2": "2 35052  86.3312  21.4986 0013698  91.6978 268.5790 14.38488102872415"}}, "geometry": {"type": "Point", "coordinates": [21.254916434401327, 0.3837372959959591]}}, {"type": "Feature", "properties": {"norad_id": 35080, "name": "IRIDIUM 33 DEB", "group": "iridium-33-debris", "lat": -56.26250467624067, "lon": -121.08187285737927, "alt_km": 591.4700832743829, "timestamp": "2025-12-10T23:33:13.203394+00:00", "meta": {"OBJECT_NAME": "IRIDIUM 33 DEB", "OBJECT_ID": "1997-051PF", "EPOCH": "2025-12-10T11:10:44.628384", "MEAN_MOTION": 14.85584115, "ECCENTRICITY": 0.006122, "INCLINATION": 86.2065, "RA_OF_ASC_NODE": 53.4628, "ARG_OF_PERICENTER": 187.2858, "MEAN_ANOMALY": 172.7483, "EPHEMERIS_TYPE": 0, "CLASSIFICATION_TYPE": "U", "NORAD_CAT_ID": 35080, "ELEMENT_SET_NO": 999, "REV_AT_EPOCH": 69654, "BSTAR": 0.011322866, "MEAN_MOTION_DOT": 0.00102609, "MEAN_MOTION_DDOT": 0}, "tle": {"line1": "1 35080U 97051PF  25344.46579431  .00102609  00000+0  11323-1 0  9993", "line2": "2 35080  86.2065  53.4628 0061220 187.2858 172.7483 14.85584115696547"}}, "geometry": {"type": "Point", "coordinates": [-121.08187285737927, -56.26250467624067]}}, {"type": "Feature", "properties": {"norad_id": 35297, "name": "IRIDIUM 33 DEB", "group": "iridium-33-debris", "lat": -45.70579144181883, "lon": -112.77555990578365, "alt_km": 746.4385251428794, "timestamp": "2025-12-10T23:33:13.203404+00:00", "meta": {"OBJECT_NAME": "IRIDIUM 33 DEB", "OBJECT_ID": "1997-051PM", "EPOCH": "2025-12-06T00:31:29.302752", "MEAN_MOTION": 14.45108459, "ECCENTRICITY": 0.00170329, "INCLINATION": 86.3867, "RA_OF_ASC_NODE": 65.6268, "ARG_OF_PERICENTER": 161.2449, "MEAN_ANOMALY": 198.9384, "EPHEMERIS_TYPE": 0, "CLASSIFICATION_TYPE": "U", "NORAD_CAT_ID": 35297, "ELEMENT_SET_NO": 999, "REV_AT_EPOCH": 70329, "BSTAR": 0.0012426888, "MEAN_MOTION_DOT": 4.371e-05, "MEAN_MOTION_DDOT": 0}, "tle": {"line1": "1 35297U 97051PM  25340.02186693  .00004371  00000+0  12427-2 0  9999", "line2": "2 35297  86.3867  65.6268 0017032 161.2449 198.9384 14.45108459703293"}}, "geometry": {"type": "Point", "coordinates": [-112.77555990578365, -45.70579144181883]}}, {"type": "Feature", "properties": {"norad_id": 35299, "name": "IRIDIUM 33 DEB", "group": "iridium-33-debris", "lat": -6.2440974174282005, "lon": -145.64145433139618, "alt_km": 750.7161642108667, "timestamp": "2025-12-10T23:33:13.203413+00:00", "meta": {"OBJECT_NAME": "IRIDIUM 33 DEB", "OBJECT_ID": "1997-051PP", "EPOCH": "2025-12-10T11:19:59.281824", "MEAN_MOTION": 14.40842438, "ECCENTRICITY": 0.00589237, "INCLINATION": 86.2883, "RA_OF_ASC_NODE": 34.1732, "ARG_OF_PERICENTER": 109.5989, "MEAN_ANOMALY": 316.372, "EPHEMERIS_TYPE": 0, "CLASSIFICATION_TYPE": "U", "NORAD_CAT_ID": 35299, "ELEMENT_SET_NO": 999, "REV_AT_EPOCH": 86298, "BSTAR": 0.0011317455, "MEAN_MOTION_DOT": 3.72e-05, "MEAN_MOTION_DDOT": 0}, "tle": {"line1": "1 35299U 97051PP  25344.47221391  .00003720  00000+0  11317-2 0  9993", "line2": "2 35299  86.2883  34.1732 0058923 109.5989 316.3720 14.40842438862986"}}, "geometry": {"type": "Point", "coordinates": [-145.64145433139618, -6.2440974174282005]}}]}